[{"OBJECT_NAME":"STARLINK-5870","OBJECT_ID":"2023-094E","EPOCH":"2026-03-09T22:00:01.999584","MEAN_MOTION":15.17627089,"ECCENTRICITY":0.000139,"INCLINATION":43.0022,"RA_OF_ASC_NODE":28.7454,"ARG_OF_PERICENTER":216.1153,"MEAN_ANOMALY":310.5212,"EPHEMERIS_TYPE":0,"CLASSIFICATION_TYPE":"U","NORAD_CAT_ID":57222,"ELEMENT_SET_NO":999,"REV_AT_EPOCH":577,"BSTAR":0.059561857,"MEAN_MOTION_DOT":0.01324539,"MEAN_MOTION_DDOT":0},{"OBJECT_NAME":"IRIS-F2","OBJECT_ID":"2025-009CD","EPOCH":"2026-03-09T16:59:24.417600","MEAN_MOTION":15.24984435,"ECCENTRICITY":0.00049485,"INCLINATION":97.3936,"RA_OF_ASC_NODE":149.6497,"ARG_OF_PERICENTER":359.0166,"MEAN_ANOMALY":1.1061,"EPHEMERIS_TYPE":0,"CLASSIFICATION_TYPE":"U","NORAD_CAT_ID":62684,"ELEMENT_SET_NO":999,"REV_AT_EPOCH":12129,"BSTAR":0.00032095462,"MEAN_MOTION_DOT":7.938e-5,"MEAN_MOTION_DDOT":0}]
